{
    "links": {
        "self": "http://www.neowsapp.com/rest/v1/neo/3766999?api_key=iIulBulltgU6a56xZRHN4H3l9WmuAYTsLGpBGhQ2"
    },
    "id": "3766999",
    "neo_reference_id": "3766999",
    "name": "(2017 BD6)",
    "designation": "2017 BD6",
    "nasa_jpl_url": "http://ssd.jpl.nasa.gov/sbdb.cgi?sstr=3766999",
    "absolute_magnitude_h": 28.4,
    "estimated_diameter": {
        "kilometers": {
            "estimated_diameter_min": 0.0055533491,
            "estimated_diameter_max": 0.0124176661
        },
        "meters": {
            "estimated_diameter_min": 5.5533491158,
            "estimated_diameter_max": 12.4176661257
        },
        "miles": {
            "estimated_diameter_min": 0.0034506901,
            "estimated_diameter_max": 0.0077159776
        },
        "feet": {
            "estimated_diameter_min": 18.2196499131,
            "estimated_diameter_max": 40.740375732
        }
    },
    "is_potentially_hazardous_asteroid": false,
    "close_approach_data": [
        {
            "close_approach_date": "2017-01-24",
            "close_approach_date_full": "2017-Jan-24 09:59",
            "epoch_date_close_approach": 1485251940000,
            "relative_velocity": {
                "kilometers_per_second": "9.2713802081",
                "kilometers_per_hour": "33376.9687491002",
                "miles_per_hour": "20739.1503874617"
            },
            "miss_distance": {
                "astronomical": "0.0050863721",
                "lunar": "1.9785987469",
                "kilometers": "760910.432187427",
                "miles": "472807.8181714126"
            },
            "orbiting_body": "Earth"
        },
        {
            "close_approach_date": "2017-01-24",
            "close_approach_date_full": "2017-Jan-24 10:20",
            "epoch_date_close_approach": 1485253200000,
            "relative_velocity": {
                "kilometers_per_second": "10.2045634634",
                "kilometers_per_hour": "36736.428468191",
                "miles_per_hour": "22826.588011249"
            },
            "miss_distance": {
                "astronomical": "0.0076328361",
                "lunar": "2.9691732429",
                "kilometers": "1141856.022619107",
                "miles": "709516.4317413966"
            },
            "orbiting_body": "Moon"
        }
    ],
    "orbital_data": {
        "orbit_id": "9",
        "orbit_determination_date": "2017-04-06 08:20:51",
        "first_observation_date": "2017-01-26",
        "last_observation_date": "2017-02-02",
        "data_arc_in_days": 7,
        "observations_used": 20,
        "orbit_uncertainty": "7",
        "minimum_orbit_intersection": ".0014719",
        "jupiter_tisserand_invariant": "3.341",
        "epoch_osculation": "2459000.5",
        "eccentricity": ".5841219172415204",
        "semi_major_axis": "2.295878163947176",
        "inclination": "5.040636647046588",
        "ascending_node_longitude": "125.5730103870231",
        "orbital_period": "1270.637543046299",
        "perihelion_distance": ".9548054090694098",
        "perihelion_argument": "335.5448217763666",
        "aphelion_distance": "3.636950918824942",
        "perihelion_time": "2459031.408963062744",
        "mean_anomaly": "351.2428003064425",
        "mean_motion": ".2833223384356451",
        "equinox": "J2000",
        "orbit_class": {
            "orbit_class_type": "APO",
            "orbit_class_description": "Near-Earth asteroid orbits which cross the Earth’s orbit similar to that of 1862 Apollo",
            "orbit_class_range": "a (semi-major axis) > 1.0 AU; q (perihelion) < 1.017 AU"
        }
    },
    "is_sentry_object": false
}